METOP-B                 
1 38771U 12049A   26032.89755101  .00000135  00000+0  81578-4 0  9992
2 38771  98.6717  86.9705 0002670  39.1635 320.9736 14.21431745694048
SARAL                   
1 39086U 13009A   26032.91661961  .00000122  00000+0  60825-4 0  9990
2 39086  98.5525 221.1835 0001592   3.3057 356.8137 14.32779596676239
METOP-C                 
1 43689U 18087A   26032.92352189  .00000123  00000+0  76280-4 0  9998
2 43689  98.6843  94.8885 0001434 151.6588 208.4668 14.21507721375614
OTB-3-GAZELLE           
1 54023U 22127A   26032.95191300  .00000101  00000+0  43543-4 0  9993
2 54023  98.3865  26.7749 0012121 233.7504 126.2566 14.42624956174868
EOS-6 (OCEANSAT-3)      
1 54361U 22158A   26032.97624244  .00000367  00000+0  11276-3 0  9993
2 54361  98.3513 133.0142 0001641  54.8330 305.3016 14.47025987168289
KINEIS-1B               
1 60079U 24114A   26032.94684164  .00001066  00000+0  14683-3 0  9996
2 60079  97.9953  57.7245 0002964 149.1659 210.9728 14.80312654 87392
KINEIS-1C               
1 60081U 24114C   26032.98044484  .00001050  00000+0  14477-3 0  9992
2 60081  97.9971  57.5758 0000348 119.6861 240.4386 14.80313598 87377
KINEIS-1D               
1 60082U 24114D   26032.94947895  .00000842  00000+0  12957-3 0  9996
2 60082  97.9990  54.5099 0000107 223.3210 136.7991 14.76045338 87174
KINEIS-1E               
1 60083U 24114E   26032.99774322  .00001394  00000+0  18977-3 0  9996
2 60083  97.9959  57.6781 0001607 132.9437 227.1909 14.80320139 87381
KINEIS-1A               
1 60084U 24114F   26032.96437681  .00001968  00000+0  26502-3 0  9998
2 60084  97.9962  57.7637 0003119 182.7610 177.3586 14.80339782 87384
KINEIS-3C               
1 61220U 24172A   26032.82942970  .00002312  00000+0  37362-3 0  9992
2 61220  98.0282 124.2701 0002119 167.5255 192.6005 14.72308783 73155
KINEIS-3D               
1 61221U 24172B   26032.82294302  .00002289  00000+0  36981-3 0  9991
2 61221  98.0280 124.2750 0001287 167.3740 192.7500 14.72318535 73438
KINEIS-3E               
1 61222U 24172C   26032.80597991  .00002201  00000+0  35602-3 0  9993
2 61222  98.0275 124.2577 0001047 124.7723 235.3583 14.72300734 73439
KINEIS-3A               
1 61223U 24172D   26032.78867229  .00002223  00000+0  35891-3 0  9999
2 61223  98.0272 124.3239 0002867 142.3196 217.8212 14.72378532 72854
KINEIS-3B               
1 61224U 24172E   26032.77152161  .00002231  00000+0  36025-3 0  9990
2 61224  98.0270 124.3433 0003679 131.7349 228.4173 14.72361750 73425
KINEIS-5C               
1 62081U 24219A   26032.95247013  .00000977  00000+0  16223-3 0  9998
2 62081  97.9909 195.0546 0002693  89.6118 270.5398 14.72351624 63856
KINEIS-5D               
1 62082U 24219B   26032.98611943  .00000973  00000+0  16162-3 0  9997
2 62082  97.9803 195.1071 0003526  79.7432 280.4173 14.72329771 63869
