[{"OBJECT_NAME":"METOP-B","OBJECT_ID":"2012-049A","EPOCH":"2026-02-01T21:32:28.407264","MEAN_MOTION":14.21431745,"ECCENTRICITY":0.00026703,"INCLINATION":98.6717,"RA_OF_ASC_NODE":86.9705,"ARG_OF_PERICENTER":39.1635,"MEAN_ANOMALY":320.9736,"EPHEMERIS_TYPE":0,"CLASSIFICATION_TYPE":"U","NORAD_CAT_ID":38771,"ELEMENT_SET_NO":999,"REV_AT_EPOCH":69404,"BSTAR":8.1577973e-5,"MEAN_MOTION_DOT":1.35e-6,"MEAN_MOTION_DDOT":0},{"OBJECT_NAME":"SARAL","OBJECT_ID":"2013-009A","EPOCH":"2026-02-01T21:59:55.934304","MEAN_MOTION":14.32779596,"ECCENTRICITY":0.00015925,"INCLINATION":98.5525,"RA_OF_ASC_NODE":221.1835,"ARG_OF_PERICENTER":3.3057,"MEAN_ANOMALY":356.8137,"EPHEMERIS_TYPE":0,"CLASSIFICATION_TYPE":"U","NORAD_CAT_ID":39086,"ELEMENT_SET_NO":999,"REV_AT_EPOCH":67623,"BSTAR":6.0824612e-5,"MEAN_MOTION_DOT":1.22e-6,"MEAN_MOTION_DDOT":0},{"OBJECT_NAME":"METOP-C","OBJECT_ID":"2018-087A","EPOCH":"2026-02-01T22:09:52.291296","MEAN_MOTION":14.21507721,"ECCENTRICITY":0.00014343,"INCLINATION":98.6843,"RA_OF_ASC_NODE":94.8885,"ARG_OF_PERICENTER":151.6588,"MEAN_ANOMALY":208.4668,"EPHEMERIS_TYPE":0,"CLASSIFICATION_TYPE":"U","NORAD_CAT_ID":43689,"ELEMENT_SET_NO":999,"REV_AT_EPOCH":37561,"BSTAR":7.6280262e-5,"MEAN_MOTION_DOT":1.23e-6,"MEAN_MOTION_DDOT":0},{"OBJECT_NAME":"OTB-3-GAZELLE","OBJECT_ID":"2022-127A","EPOCH":"2026-02-01T22:50:45.283200","MEAN_MOTION":14.42624956,"ECCENTRICITY":0.0012121,"INCLINATION":98.3865,"RA_OF_ASC_NODE":26.7749,"ARG_OF_PERICENTER":233.7504,"MEAN_ANOMALY":126.2566,"EPHEMERIS_TYPE":0,"CLASSIFICATION_TYPE":"U","NORAD_CAT_ID":54023,"ELEMENT_SET_NO":999,"REV_AT_EPOCH":17486,"BSTAR":4.3543085e-5,"MEAN_MOTION_DOT":1.01e-6,"MEAN_MOTION_DDOT":0},{"OBJECT_NAME":"EOS-6 (OCEANSAT-3)","OBJECT_ID":"2022-158A","EPOCH":"2026-02-01T23:25:47.346816","MEAN_MOTION":14.47025987,"ECCENTRICITY":0.00016417,"INCLINATION":98.3513,"RA_OF_ASC_NODE":133.0142,"ARG_OF_PERICENTER":54.833,"MEAN_ANOMALY":305.3016,"EPHEMERIS_TYPE":0,"CLASSIFICATION_TYPE":"U","NORAD_CAT_ID":54361,"ELEMENT_SET_NO":999,"REV_AT_EPOCH":16828,"BSTAR":0.00011276458,"MEAN_MOTION_DOT":3.67e-6,"MEAN_MOTION_DDOT":0},{"OBJECT_NAME":"KINEIS-1B","OBJECT_ID":"2024-114A","EPOCH":"2026-02-01T22:43:27.117696","MEAN_MOTION":14.80312654,"ECCENTRICITY":0.00029647,"INCLINATION":97.9953,"RA_OF_ASC_NODE":57.7245,"ARG_OF_PERICENTER":149.1659,"MEAN_ANOMALY":210.9728,"EPHEMERIS_TYPE":0,"CLASSIFICATION_TYPE":"U","NORAD_CAT_ID":60079,"ELEMENT_SET_NO":999,"REV_AT_EPOCH":8739,"BSTAR":0.00014683427,"MEAN_MOTION_DOT":1.066e-5,"MEAN_MOTION_DDOT":0},{"OBJECT_NAME":"KINEIS-1C","OBJECT_ID":"2024-114C","EPOCH":"2026-02-01T23:31:50.434176","MEAN_MOTION":14.80313598,"ECCENTRICITY":3.483e-5,"INCLINATION":97.9971,"RA_OF_ASC_NODE":57.5758,"ARG_OF_PERICENTER":119.6861,"MEAN_ANOMALY":240.4386,"EPHEMERIS_TYPE":0,"CLASSIFICATION_TYPE":"U","NORAD_CAT_ID":60081,"ELEMENT_SET_NO":999,"REV_AT_EPOCH":8737,"BSTAR":0.00014476833,"MEAN_MOTION_DOT":1.05e-5,"MEAN_MOTION_DDOT":0},{"OBJECT_NAME":"KINEIS-1D","OBJECT_ID":"2024-114D","EPOCH":"2026-02-01T22:47:14.981280","MEAN_MOTION":14.76045338,"ECCENTRICITY":1.074e-5,"INCLINATION":97.999,"RA_OF_ASC_NODE":54.5099,"ARG_OF_PERICENTER":223.321,"MEAN_ANOMALY":136.7991,"EPHEMERIS_TYPE":0,"CLASSIFICATION_TYPE":"U","NORAD_CAT_ID":60082,"ELEMENT_SET_NO":999,"REV_AT_EPOCH":8717,"BSTAR":0.00012956668,"MEAN_MOTION_DOT":8.42e-6,"MEAN_MOTION_DDOT":0},{"OBJECT_NAME":"KINEIS-1E","OBJECT_ID":"2024-114E","EPOCH":"2026-02-01T23:56:45.014208","MEAN_MOTION":14.80320139,"ECCENTRICITY":0.00016071,"INCLINATION":97.9959,"RA_OF_ASC_NODE":57.6781,"ARG_OF_PERICENTER":132.9437,"MEAN_ANOMALY":227.1909,"EPHEMERIS_TYPE":0,"CLASSIFICATION_TYPE":"U","NORAD_CAT_ID":60083,"ELEMENT_SET_NO":999,"REV_AT_EPOCH":8738,"BSTAR":0.00018976871,"MEAN_MOTION_DOT":1.394e-5,"MEAN_MOTION_DDOT":0},{"OBJECT_NAME":"KINEIS-1A","OBJECT_ID":"2024-114F","EPOCH":"2026-02-01T23:08:42.156384","MEAN_MOTION":14.80339782,"ECCENTRICITY":0.00031199,"INCLINATION":97.9962,"RA_OF_ASC_NODE":57.7637,"ARG_OF_PERICENTER":182.761,"MEAN_ANOMALY":177.3586,"EPHEMERIS_TYPE":0,"CLASSIFICATION_TYPE":"U","NORAD_CAT_ID":60084,"ELEMENT_SET_NO":999,"REV_AT_EPOCH":8738,"BSTAR":0.00026502231,"MEAN_MOTION_DOT":1.968e-5,"MEAN_MOTION_DDOT":0},{"OBJECT_NAME":"KINEIS-3C","OBJECT_ID":"2024-172A","EPOCH":"2026-02-01T19:54:22.726080","MEAN_MOTION":14.72308783,"ECCENTRICITY":0.00021191,"INCLINATION":98.0282,"RA_OF_ASC_NODE":124.2701,"ARG_OF_PERICENTER":167.5255,"MEAN_ANOMALY":192.6005,"EPHEMERIS_TYPE":0,"CLASSIFICATION_TYPE":"U","NORAD_CAT_ID":61220,"ELEMENT_SET_NO":999,"REV_AT_EPOCH":7315,"BSTAR":0.00037361585,"MEAN_MOTION_DOT":2.312e-5,"MEAN_MOTION_DDOT":0},{"OBJECT_NAME":"KINEIS-3D","OBJECT_ID":"2024-172B","EPOCH":"2026-02-01T19:45:02.276928","MEAN_MOTION":14.72318535,"ECCENTRICITY":0.00012871,"INCLINATION":98.028,"RA_OF_ASC_NODE":124.275,"ARG_OF_PERICENTER":167.374,"MEAN_ANOMALY":192.75,"EPHEMERIS_TYPE":0,"CLASSIFICATION_TYPE":"U","NORAD_CAT_ID":61221,"ELEMENT_SET_NO":999,"REV_AT_EPOCH":7343,"BSTAR":0.00036981255,"MEAN_MOTION_DOT":2.289e-5,"MEAN_MOTION_DDOT":0},{"OBJECT_NAME":"KINEIS-3E","OBJECT_ID":"2024-172C","EPOCH":"2026-02-01T19:20:36.664224","MEAN_MOTION":14.72300734,"ECCENTRICITY":0.00010476,"INCLINATION":98.0275,"RA_OF_ASC_NODE":124.2577,"ARG_OF_PERICENTER":124.7723,"MEAN_ANOMALY":235.3583,"EPHEMERIS_TYPE":0,"CLASSIFICATION_TYPE":"U","NORAD_CAT_ID":61222,"ELEMENT_SET_NO":999,"REV_AT_EPOCH":7343,"BSTAR":0.00035601955,"MEAN_MOTION_DOT":2.201e-5,"MEAN_MOTION_DDOT":0},{"OBJECT_NAME":"KINEIS-3A","OBJECT_ID":"2024-172D","EPOCH":"2026-02-01T18:55:41.285856","MEAN_MOTION":14.72378532,"ECCENTRICITY":0.00028679,"INCLINATION":98.0272,"RA_OF_ASC_NODE":124.3239,"ARG_OF_PERICENTER":142.3196,"MEAN_ANOMALY":217.8212,"EPHEMERIS_TYPE":0,"CLASSIFICATION_TYPE":"U","NORAD_CAT_ID":61223,"ELEMENT_SET_NO":999,"REV_AT_EPOCH":7285,"BSTAR":0.00035890945,"MEAN_MOTION_DOT":2.223e-5,"MEAN_MOTION_DDOT":0},{"OBJECT_NAME":"KINEIS-3B","OBJECT_ID":"2024-172E","EPOCH":"2026-02-01T18:30:59.467104","MEAN_MOTION":14.7236175,"ECCENTRICITY":0.00036796,"INCLINATION":98.027,"RA_OF_ASC_NODE":124.3433,"ARG_OF_PERICENTER":131.7349,"MEAN_ANOMALY":228.4173,"EPHEMERIS_TYPE":0,"CLASSIFICATION_TYPE":"U","NORAD_CAT_ID":61224,"ELEMENT_SET_NO":999,"REV_AT_EPOCH":7342,"BSTAR":0.00036025345,"MEAN_MOTION_DOT":2.231e-5,"MEAN_MOTION_DDOT":0},{"OBJECT_NAME":"KINEIS-5C","OBJECT_ID":"2024-219A","EPOCH":"2026-02-01T22:51:33.419232","MEAN_MOTION":14.72351624,"ECCENTRICITY":0.00026938,"INCLINATION":97.9909,"RA_OF_ASC_NODE":195.0546,"ARG_OF_PERICENTER":89.6118,"MEAN_ANOMALY":270.5398,"EPHEMERIS_TYPE":0,"CLASSIFICATION_TYPE":"U","NORAD_CAT_ID":62081,"ELEMENT_SET_NO":999,"REV_AT_EPOCH":6385,"BSTAR":0.00016223025,"MEAN_MOTION_DOT":9.77e-6,"MEAN_MOTION_DDOT":0},{"OBJECT_NAME":"KINEIS-5D","OBJECT_ID":"2024-219B","EPOCH":"2026-02-01T23:40:00.718752","MEAN_MOTION":14.72329771,"ECCENTRICITY":0.00035262,"INCLINATION":97.9803,"RA_OF_ASC_NODE":195.1071,"ARG_OF_PERICENTER":79.7432,"MEAN_ANOMALY":280.4173,"EPHEMERIS_TYPE":0,"CLASSIFICATION_TYPE":"U","NORAD_CAT_ID":62082,"ELEMENT_SET_NO":999,"REV_AT_EPOCH":6386,"BSTAR":0.00016161644,"MEAN_MOTION_DOT":9.73e-6,"MEAN_MOTION_DDOT":0}]
